OBJECT_NAME,OBJECT_ID,EPOCH,MEAN_MOTION,ECCENTRICITY,INCLINATION,RA_OF_ASC_NODE,ARG_OF_PERICENTER,MEAN_ANOMALY,EPHEMERIS_TYPE,CLASSIFICATION_TYPE,NORAD_CAT_ID,ELEMENT_SET_NO,REV_AT_EPOCH,BSTAR,MEAN_MOTION_DOT,MEAN_MOTION_DDOT
H-2A R/B,2006-002B,2026-07-11T23:13:20.176896,15.18413845,.00506126,98.2582,351.0476,176.9533,183.2017,0,U,28932,999,11328,.24366432E-3,.5099E-4,0
RESURS-DK 1,2006-021A,2026-07-11T14:59:58.583040,15.13311404,.0006915,69.9312,276.2899,275.2250,84.8127,0,U,29228,999,10627,.6271749E-4,.1011E-4,0
CZ-4B R/B,2006-046C,2026-07-12T02:32:43.621152,15.17966223,.00322592,97.5443,237.6364,192.9535,167.0874,0,U,29507,999,7891,.11739394E-3,.2345E-4,0
CZ-2C R/B,2007-010B,2026-07-12T06:43:50.762496,14.20281357,.00578271,98.4116,300.4065,292.4166,67.0893,0,U,31114,999,99740,.27572976E-4,.18E-6,0
COSMO-SKYMED 1,2007-023A,2026-07-12T07:57:30.165696,14.97210910,.00011881,97.8843,25.4001,102.0116,258.1239,0,U,31598,999,3355,.11674059E-3,.129E-4,0
COSMOS 2428,2007-029A,2026-07-11T15:20:16.054944,14.12932455,.00071784,70.9382,303.1376,88.1796,272.0147,0,U,31792,999,98160,.1195521E-3,.175E-5,0
SL-16 R/B,2007-029B,2026-07-11T15:37:40.598976,14.14850744,.00020413,70.9748,271.8031,256.6911,209.7663,0,U,31793,999,98290,.23493934E-4,-.3E-7,0
KORONAS-FOTON,2009-003A,2026-07-11T20:50:45.868416,15.46244824,.00123893,82.4297,146.5036,72.5138,287.7464,0,U,33504,999,96491,.16497862E-3,.8175E-4,0
CZ-2C R/B,2011-030B,2026-07-11T21:30:43.189344,14.81528551,.0050985,97.8668,147.8393,307.1677,116.7810,0,U,37731,999,80848,.79146E-4,.579E-5,0
H-2A R/B,2012-025E,2026-07-11T23:24:08.474112,14.95832923,.0042324,98.4848,170.1683,266.0127,93.6253,0,U,38341,999,76679,.77947488E-4,.814E-5,0
SHIJIAN-16 (SJ-16),2013-057A,2026-07-12T07:22:19.106112,14.92668882,.00158787,74.9737,309.1042,171.8877,188.2572,0,U,39358,999,69009,.13925703E-3,.141E-4,0
SL-4 R/B,2014-021B,2026-07-12T03:23:15.849024,15.42441534,.00898122,51.6063,88.4767,197.2226,162.5706,0,U,39679,999,67546,.11873934E-3,.5567E-4,0
ALOS-2,2014-029A,2026-07-12T07:09:58.341024,14.79469856,.00015783,97.9225,290.1033,94.5148,265.6244,0,U,39766,999,65529,.14291572E-3,.1016E-4,0
YAOGAN-29,2015-069A,2026-07-12T06:37:06.235968,14.83103860,.00010078,98.0027,221.9469,15.2898,344.8345,0,U,41038,999,57434,-.16625552E-4,-.189E-5,0
ASTRO-H (HITOMI),2016-012A,2026-07-12T06:37:30.235296,15.10625106,.00095921,30.9989,272.1447,145.9098,214.2158,0,U,41337,999,57108,.83007423E-4,.1503E-4,0
HXMT (HUIYAN),2017-034A,2026-07-12T01:30:39.184128,15.18672268,.00325783,43.0151,44.5064,301.6112,58.1559,0,U,42758,999,50144,.14977227E-3,.2958E-4,0
SAOCOM 1A,2018-076A,2026-07-12T05:59:56.109408,14.82143974,.00014494,97.8890,19.6347,83.0760,277.0618,0,U,43641,999,41981,-.44105421E-4,-.403E-5,0
H-2A R/B,2018-084L,2026-07-11T20:36:13.790016,15.46112925,.0020679,98.8545,77.1554,312.9103,47.0405,0,U,43682,999,42493,.25311102E-3,.12377E-3,0
SAOCOM 1B,2020-059A,2026-07-12T06:44:53.869920,14.82157787,.00015668,97.8893,18.7615,82.2592,277.8799,0,U,46265,999,31720,.70373462E-4,.508E-5,0
CSS (TIANHE),2021-035A,2026-07-12T06:23:37.679712,15.58035047,.00024506,41.4687,169.5849,291.0360,69.0216,0,U,48274,999,29708,.14737872E-4,.809E-5,0
COSMOS 2550,2021-056A,2026-07-12T07:47:50.360352,15.33806320,.00084315,67.1435,23.8662,270.9704,89.0484,0,U,48865,999,28257,.24042311E-4,.599E-5,0
CZ-2C R/B,2022-058K,2026-07-11T23:42:02.606688,15.63671011,.00304344,50.1857,34.3009,9.2054,350.9472,0,U,52794,999,22952,.29588771E-3,.28373E-3,0
CZ-2C R/B,2022-132E,2026-07-11T13:55:27.213312,15.74627248,.00101357,97.2899,200.7470,357.5073,2.6140,0,U,54039,999,20978,.29532847E-3,.43213E-3,0
GSLV R/B,2022-138AN,2026-07-12T05:54:46.379232,14.97374381,.00238071,87.3818,124.5695,61.8951,298.4683,0,U,54149,999,20256,.11807993E-3,.1408E-4,0
XRISM,2023-137A,2026-07-12T04:49:24.571776,15.12656467,.00078303,31.0006,197.5466,216.7533,143.2569,0,U,57800,999,15665,.11031089E-3,.2076E-4,0
ACS3,2024-077B,2026-07-11T17:46:17.954112,13.95349463,.01210111,97.1723,106.0854,40.7850,320.2298,0,U,59588,999,11146,.713075E-2,.10248E-3,0
SPACEMOBILE-003,2024-163A,2026-07-12T02:59:11.082912,15.20757146,.00039532,52.9645,194.7701,176.8899,183.2120,0,U,61045,999,10156,.15017438E-4,.8E-7,0
SPACEMOBILE-005,2024-163B,2026-07-11T10:49:01.909056,15.20765383,.00088948,52.9788,197.8076,184.8633,175.2276,0,U,61046,999,10145,.15154729E-3,.3056E-4,0
SPACEMOBILE-001,2024-163C,2026-07-11T10:46:43.885920,15.20792937,.00074751,52.9736,197.5273,183.3179,176.7767,0,U,61047,999,10145,.28550562E-4,.309E-5,0
SPACEMOBILE-002,2024-163D,2026-07-11T00:55:48.887328,15.20841812,.00066201,52.9623,199.4399,180.9990,179.0992,0,U,61048,999,10139,.38280824E-3,.8243E-4,0
